HST                     
1 20580U 90037B   25203.56980264  .00004901  00000+0  17918-3 0  9998
2 20580  28.4663 165.0233 0002161 120.6752 239.4055 15.25619513738092
POLAR                   
1 23802U 96013A   25201.07708407  .00000266  00000+0  00000+0 0  9999
2 23802  79.4793 230.7041 6151730 220.2862  72.3265  1.29846784140546
SWAS                    
1 25560U 98071A   25203.56360573  .00003554  00000+0  24788-3 0  9998
2 25560  69.8976 355.5313 0004375  20.1978 339.9357 15.06337884447577
CXO                     
1 25867U 99040B   25206.46147460  .00000589  00000+0  00000+0 0  9997
2 25867  50.3266 127.9554 8365602 310.0224   0.4270  0.37802997 16080
XMM-NEWTON              
1 25989U 99066A   25205.26963174  .00000048  00000+0  00000+0 0  9995
2 25989  66.0822 287.3158 4823508  70.6811   0.1602  0.50134673 21355
TERRA                   
1 25994U 99068A   25203.59825110  .00000385  00000+0  88192-4 0  9991
2 25994  97.9961 260.3544 0002517 156.6015   2.7574 14.60738779361484
CLUSTER II-FM7 (SAMBA)  
1 26410U 00041A   25205.02922043  .00002518  00000+0  00000+0 0  9998
2 26410 145.1086  14.0593 8465369 229.3947 359.2063  0.44815005 18845
CLUSTER II-FM5 (RUMBA)  
1 26463U 00045A   25200.43800599  .00006343  00000+0  00000+0 0  9991
2 26463 150.4749  83.2559 9095462 302.4153   0.8458  0.42932503 18707
CLUSTER II-FM8 (TANGO)  
1 26464U 00045B   25204.69100751  .00002650  00000+0  00000+0 0  9994
2 26464 145.3563  14.4350 8470347 229.6352 359.2521  0.44416528 18831
ODIN                    
1 26702U 01007A   25203.55608920  .00026563  00000+0  61511-3 0  9990
2 26702  97.4407 227.8535 0002024 290.6977  69.4053 15.42425436338209
TIMED                   
1 26998U 01055B   25203.37569117  .00001201  00000+0  11618-3 0  9999
2 26998  74.0679 178.4938 0000713 270.6981  89.4121 14.94050625281544
CORIOLIS                
1 27640U 03001A   25203.61721528  .00000120  00000+0  77132-4 0  9993
2 27640  98.7131 210.5516 0015255  82.8127 277.4784 14.19802440167451
SORCE                   
1 27651U 03004A   25203.56767719  .00003495  00000+0  28106-3 0  9998
2 27651  39.9929 338.4053 0017620 203.0499 156.9504 15.00796437222315
MOST                    
1 27843U 03031D   25203.60265627  .00000070  00000+0  52228-4 0  9996
2 27843  98.7060 210.9166 0010859 120.7087 239.5162 14.21218131143896
SCISAT 1                
1 27858U 03036A   25203.14037397  .00000548  00000+0  75808-4 0  9996
2 27858  73.9305 106.7933 0008819 248.7782 111.2452 14.80770082182589
SWIFT                   
1 28485U 04047A   25203.52224232  .00018001  00000+0  42384-3 0  9999
2 28485  20.5537 150.0069 0005257 136.2943 223.7914 15.39635335135548
HINODE (SOLAR-B)        
1 29479U 06041A   25203.56427575  .00000715  00000+0  13322-3 0  9991
2 29479  98.0713 219.4012 0016250 252.0773 107.8660 14.67976166  6502
SHIJIAN-6 02A (SJ-6 02A)
1 29505U 06046A   25203.60091188  .00004603  00000+0  27327-3 0  9998
2 29505  97.6801 237.5160 0003603 168.6286 191.5026 15.11821258 22380
SHIJIAN-6 02B (SJ-6 02B)
1 29506U 06046B   25203.61972919  .00001721  00000+0  14330-3 0  9998
2 29506  97.7031 230.7177 0008675  85.5569 274.6645 14.99955123 21311
FGRST (GLAST)           
1 33053U 08029A   25203.53964583  .00003179  00000+0  12376-3 0  9999
2 33053  25.5830 329.0629 0009039  45.7809 314.3470 15.21316502945538
SDO                     
1 36395U 10005A   25203.21850398 -.00000111  00000+0  00000+0 0  9992
2 36395  33.9556  91.3867 0001253  81.7596 103.5558  1.00276796 56758
CRYOSAT 2               
1 36508U 10013A   25203.57529412  .00000137  00000+0  33150-4 0  9990
2 36508  92.0098 197.6155 0002302  83.4821 276.6648 14.51914741810251
X-SAT                   
1 37389U 11015C   25203.52419005  .00000100  00000+0  59991-4 0  9993
2 37389  98.3139 191.9975 0013059 227.8664 132.1407 14.25052553740729
GCOM-W1 (SHIZUKU)       
1 38337U 12025A   25203.57735791  .00000488  00000+0  11828-3 0  9992
2 38337  98.2023 143.8250 0001167  83.7386  89.7854 14.57152938701030
NUSTAR                  
1 38358U 12031A   25203.58335648  .00004487  00000+0  25649-3 0  9999
2 38358   6.0273 338.1188 0009308 260.1080  42.1236 15.04158592  1308
NEOSSAT                 
1 39089U 13009D   25203.50219412  .00000201  00000+0  84489-4 0  9997
2 39089  98.4083  26.5785 0011727 144.2174 215.9800 14.35629058649431
BRITE-AUSTRIA           
1 39091U 13009F   25203.45379368  .00000193  00000+0  80400-4 0  9990
2 39091  98.3894  26.2736 0011016 139.6975 220.5029 14.36327561649715
IRIS                    
1 39197U 13033A   25203.54054251  .00001014  00000+0  12587-3 0  9998
2 39197  97.9509  38.7223 0024016 319.1845  40.7570 14.84661688651444
HISAKI (SPRINT-A)       
1 39253U 13049A   25203.10298965  .00000095  00000+0  37422-4 0  9996
2 39253  29.7206  98.1155 0137029 220.8772 138.1453 13.55497248586607
CASSIOPE                
1 39265U 13055A   25203.55172647  .00033401 -74232-6  50785-3 0  9992
2 39265  80.9417  99.2024 0385453  73.7516 290.5739 14.99756269617837
STSAT-3                 
1 39422U 13066G   25203.55892272  .00002327  00000+0  19122-3 0  9999
2 39422  97.5693 175.5144 0019489  83.9935 276.3509 14.99975609634741
SWARM B                 
1 39451U 13067A   25203.59355770  .00003025  00000+0  11808-3 0  9992
2 39451  87.7415  82.2214 0002670  94.7043 265.4510 15.25519627632947
SWARM A                 
1 39452U 13067B   25203.56759608  .00007463  00000+0  16903-3 0  9999
2 39452  87.3419 177.7439 0003191  92.5844 267.5778 15.42914277655292
SWARM C                 
1 39453U 13067C   25203.56749364  .00007514  00000+0  17019-3 0  9994
2 39453  87.3418 176.3347 0003195  92.4621 267.7002 15.42913905655256
BRITE-CA1 (TORONTO)     
1 40020U 14033L   25203.61099113  .00000852  00000+0  13849-3 0  9991
2 40020  97.9310 334.7221 0078703 251.5879 107.6759 14.71684740593724
OCO 2                   
1 40059U 14035A   25203.54116830  .00000413  00000+0  10164-3 0  9993
2 40059  98.2020 144.5368 0001421  81.7419 278.3940 14.57100848588046
BRITE-PL2 (HEWELIUSZ)   
1 40119U 14049B   25203.25587867  .00001894  00000+0  18881-3 0  9993
2 40119  97.8928 308.5919 0015791 120.9090 239.3684 14.92709435592194
MMS 1                   
1 40482U 15011A   25203.58335648 -.00002090  00000+0  00000+0 0  9990
2 40482  65.9835 354.2892 8666735 160.3946 115.1177  0.28482880  1362
MMS 2                   
1 40483U 15011B   25203.58335648 -.00002092  00000+0  00000+0 0  9993
2 40483  65.9833 354.2896 8669233 160.3940 115.1122  0.28482187  1365
MMS 3                   
1 40484U 15011C   25203.58335648 -.00002091  00000+0  00000+0 0  9993
2 40484  65.9879 354.2982 8668126 160.4034 115.0798  0.28482211  1363
MMS 4                   
1 40485U 15011D   25203.58335648 -.00002091  00000+0  00000+0 0  9994
2 40485  65.9791 354.2842 8668220 160.4116 115.0679  0.28482117  1361
ASTROSAT                
1 40930U 15052A   25203.08005529  .00001540  00000+0  10906-3 0  9998
2 40930   5.9982   9.7790 0008187 358.9386   1.0724 14.81498562530773
DAMPE                   
1 41173U 15078A   25203.52368072  .00001250  00000+0  46241-4 0  9990
2 41173  97.4492 202.7638 0012877 158.0617 202.1177 15.29542220534132
PISAT                   
1 41784U 16059B   25203.56947567  .00000881  00000+0  16089-3 0  9999
2 41784  97.8157 213.4892 0029660 175.3297 184.8191 14.68008906471364
HXMT (HUIYAN)           
1 42758U 17034A   25203.46831971  .00002718  00000+0  15696-3 0  9999
2 42758  43.0132 213.2719 0035274 223.9612 135.8427 15.14133982447600
FLYING LAPTOP           
1 42831U 17042G   25203.58045979  .00001515  00000+0  12990-3 0  9996
2 42831  97.4088   9.0306 0011922 162.6805 197.4828 14.98873912437046
ZHANGHENG 1-01 (CSES-1) 
1 43194U 18015C   25203.57009732  .00007377  00000+0  33668-3 0  9993
2 43194  97.6527 358.3591 0013695  11.5466 348.6081 15.20835917414549
SALSAT                  
1 46495U 20068K   25203.51949835  .00006240  00000+0  26641-3 0  9993
2 46495  97.8623 183.5523 0011692  22.6749 337.5001 15.23227200265063
IXPE                    
1 49954U 21121A   25203.58335648  .00009474  00000+0  57473-3 0  9994
2 49954   0.2297 282.4252 0008309 145.9593 259.9987 15.05814448  5772
